{
    "links": {
        "self": "http://www.neowsapp.com/rest/v1/neo/3843506?api_key=iIulBulltgU6a56xZRHN4H3l9WmuAYTsLGpBGhQ2"
    },
    "id": "3843506",
    "neo_reference_id": "3843506",
    "name": "(2019 PC1)",
    "designation": "2019 PC1",
    "nasa_jpl_url": "http://ssd.jpl.nasa.gov/sbdb.cgi?sstr=3843506",
    "absolute_magnitude_h": 26.0,
    "estimated_diameter": {
        "kilometers": {
            "estimated_diameter_min": 0.0167708462,
            "estimated_diameter_max": 0.0375007522
        },
        "meters": {
            "estimated_diameter_min": 16.7708462163,
            "estimated_diameter_max": 37.5007521798
        },
        "miles": {
            "estimated_diameter_min": 0.0104209175,
            "estimated_diameter_max": 0.0233018799
        },
        "feet": {
            "estimated_diameter_min": 55.0224631002,
            "estimated_diameter_max": 123.0339677816
        }
    },
    "is_potentially_hazardous_asteroid": false,
    "close_approach_data": [
        {
            "close_approach_date": "1950-03-30",
            "close_approach_date_full": "1950-Mar-30 06:50",
            "epoch_date_close_approach": -623524200000,
            "relative_velocity": {
                "kilometers_per_second": "26.6890819127",
                "kilometers_per_hour": "96080.6948855483",
                "miles_per_hour": "59700.8073304119"
            },
            "miss_distance": {
                "astronomical": "0.4190937538",
                "lunar": "163.0274702282",
                "kilometers": "62695532.898784406",
                "miles": "38957197.6740445628"
            },
            "orbiting_body": "Earth"
        },
        {
            "close_approach_date": "2019-08-06",
            "close_approach_date_full": "2019-Aug-06 00:29",
            "epoch_date_close_approach": 1565051340000,
            "relative_velocity": {
                "kilometers_per_second": "12.6611444477",
                "kilometers_per_hour": "45580.1200115465",
                "miles_per_hour": "28321.7140149523"
            },
            "miss_distance": {
                "astronomical": "0.0053254939",
                "lunar": "2.0716171271",
                "kilometers": "796682.544137993",
                "miles": "495035.5778225834"
            },
            "orbiting_body": "Moon"
        },
        {
            "close_approach_date": "2019-08-06",
            "close_approach_date_full": "2019-Aug-06 05:54",
            "epoch_date_close_approach": 1565070840000,
            "relative_velocity": {
                "kilometers_per_second": "13.2126597656",
                "kilometers_per_hour": "47565.5751562126",
                "miles_per_hour": "29555.3986297033"
            },
            "miss_distance": {
                "astronomical": "0.0055341195",
                "lunar": "2.1527724855",
                "kilometers": "827892.489525465",
                "miles": "514428.538622817"
            },
            "orbiting_body": "Earth"
        }
    ],
    "orbital_data": {
        "orbit_id": "2",
        "orbit_determination_date": "2019-08-11 05:25:30",
        "first_observation_date": "2019-08-08",
        "last_observation_date": "2019-08-09",
        "data_arc_in_days": 1,
        "observations_used": 17,
        "orbit_uncertainty": "8",
        "minimum_orbit_intersection": ".00517175",
        "jupiter_tisserand_invariant": "3.152",
        "epoch_osculation": "2458704.5",
        "eccentricity": ".6334460480619806",
        "semi_major_axis": "2.489953533300939",
        "inclination": "7.216085260168177",
        "ascending_node_longitude": "135.1339935900303",
        "orbital_period": "1435.110330360696",
        "perihelion_distance": ".9127023077734941",
        "perihelion_argument": "135.3050315080266",
        "aphelion_distance": "4.067204758828384",
        "perihelion_time": "2458669.918324299742",
        "mean_anomaly": "8.674875365829115",
        "mean_motion": ".2508517933318192",
        "equinox": "J2000",
        "orbit_class": {
            "orbit_class_type": "APO",
            "orbit_class_description": "Near-Earth asteroid orbits which cross the Earth’s orbit similar to that of 1862 Apollo",
            "orbit_class_range": "a (semi-major axis) > 1.0 AU; q (perihelion) < 1.017 AU"
        }
    },
    "is_sentry_object": false
}